OBJECT_NAME,OBJECT_ID,EPOCH,MEAN_MOTION,ECCENTRICITY,INCLINATION,RA_OF_ASC_NODE,ARG_OF_PERICENTER,MEAN_ANOMALY,EPHEMERIS_TYPE,CLASSIFICATION_TYPE,NORAD_CAT_ID,ELEMENT_SET_NO,REV_AT_EPOCH,BSTAR,MEAN_MOTION_DOT,MEAN_MOTION_DDOT
YAOGAN-35 01C,2021-101D,2026-06-09T03:40:21.326304,15.23397554,.0007996,35.0060,315.4508,300.7726,59.2202,0,U,49393,999,25578,.45604E-3,.11105E-3,0
TEIKYOSAT-4 (OORURI),2021-102B,2026-06-09T00:48:03.096288,15.09479159,.0011066,97.3672,189.8336,327.9148,32.1407,0,U,49396,999,25149,.13499E-3,.2103E-4,0
RAISE 2,2021-102C,2026-06-09T00:44:05.821152,15.21411600,.0007234,97.3259,193.2626,321.5415,38.5304,0,U,49397,999,25219,.24795E-3,.55E-4,0
Z-SAT,2021-102E,2026-06-09T03:46:22.293408,15.18207068,.0014821,97.3333,195.7243,276.3055,83.6492,0,U,49399,999,25222,.22408E-3,.4529E-4,0
HIBARI,2021-102F,2026-06-09T02:25:16.462272,15.31566818,.0010547,97.3243,206.0970,221.4141,138.6302,0,U,49400,999,25295,.28437E-3,.8606E-4,0
DRUMS,2021-102G,2026-06-09T01:05:18.622752,15.20404577,.0013452,97.3300,197.3628,259.3459,100.6261,0,U,49401,999,25234,.20992E-3,.4517E-4,0
KOSEN-1,2021-102H,2026-06-09T01:55:35.622624,15.26721904,.0012433,97.3193,202.3955,230.9756,129.0377,0,U,49402,999,25278,.23761E-3,.6184E-4,0
STARLINK-3151,2021-104A,2026-06-09T05:40:49.554624,16.05020010,.0001283,53.2099,139.5221,116.0930,244.0236,0,U,49408,999,25299,.11923E-2,.836349E-2,.36706E-3
STARLINK-3075,2021-104B,2026-06-08T08:14:00.498048,15.08830279,.00019671,53.1670,182.1180,92.0389,268.0827,0,U,49409,999,25232,.97236245E-4,.1259E-4,0
STARLINK-3147,2021-104C,2026-06-08T08:04:47.303040,15.08837705,.00013667,53.1680,182.1578,85.3589,274.7559,0,U,49410,999,25231,.60403721E-4,.673E-5,0
STARLINK-3162,2021-104D,2026-06-09T04:34:09.371136,15.08832803,.0001427,53.1655,168.3131,103.9012,256.2138,0,U,49411,999,25258,.18917E-4,.13E-6,0
STARLINK-3157,2021-104F,2026-06-09T04:30:14.159232,15.08836513,.0001248,53.1638,168.3328,81.8240,278.2893,0,U,49413,999,25258,.29414E-4,.18E-5,0
STARLINK-3146,2021-104G,2026-06-09T04:38:07.512864,15.08834671,.0000997,53.1655,178.2992,82.2605,277.8500,0,U,49414,999,25244,.3074E-4,.201E-5,0
STARLINK-3159,2021-104H,2026-06-09T04:23:33.349632,15.08830194,.0001248,53.1648,168.3424,79.5065,280.6067,0,U,49415,999,25257,.14097E-4,-.64E-6,0
STARLINK-3133,2021-104J,2026-06-08T18:55:12.891360,15.08836750,.000131,53.1683,180.1169,79.4710,280.6429,0,U,49416,999,25238,.61125E-4,.685E-5,0
STARLINK-3154,2021-104K,2026-06-08T08:25:52.679424,15.08833396,.00012824,53.1679,171.7342,86.3510,273.7628,0,U,49417,999,25245,.3046467E-4,.197E-5,0
STARLINK-3111,2021-104L,2026-06-08T18:49:55.005024,15.08833865,.0001235,53.1674,180.1325,87.0802,273.0331,0,U,49418,999,25237,.59512E-4,.659E-5,0
STARLINK-3120,2021-104M,2026-06-08T18:34:01.201728,15.08834690,.0001265,53.1669,180.1828,73.2965,286.8165,0,U,49419,999,25237,.97407E-5,-.133E-5,0
STARLINK-3110,2021-104N,2026-06-08T18:44:36.978720,15.08835337,.000126,53.1666,180.1498,85.4937,274.6199,0,U,49420,999,25237,.42138E-4,.383E-5,0
STARLINK-3112,2021-104P,2026-06-08T17:56:53.431296,15.08835055,.0000824,53.1662,180.1055,76.7122,283.3962,0,U,49421,999,25237,-.17387E-4,-.564E-5,0
STARLINK-3161,2021-104Q,2026-06-08T08:15:26.346816,15.08837056,.00015044,53.1683,182.4318,66.3067,293.8082,0,U,49422,999,25230,.4686094E-4,.458E-5,0
STARLINK-3135,2021-104S,2026-06-08T18:28:43.108896,15.08834856,.0001226,53.1645,180.1999,85.2472,274.8659,0,U,49424,999,25237,.60374E-4,.673E-5,0
STARLINK-3139,2021-104T,2026-06-08T18:08:55.686048,15.08825469,.0001084,53.1646,180.2711,86.1438,273.9678,0,U,49425,999,25238,.28712E-4,.169E-5,0
STARLINK-3114,2021-104U,2026-06-09T00:39:40.394304,15.08827950,.000123,53.1669,179.0420,86.6047,273.5085,0,U,49426,999,25241,-.17241E-4,-.562E-5,0
STARLINK-3131,2021-104V,2026-06-08T18:03:36.413856,15.08831383,.0001866,53.1671,180.2880,89.6682,270.4523,0,U,49427,999,25238,.21631E-4,.56E-6,0
STARLINK-3121,2021-104W,2026-06-08T08:03:23.561568,15.08839119,.00012985,53.1674,182.0648,85.2060,274.9080,0,U,49428,999,25232,.16414692E-4,-.27E-6,0
STARLINK-3138,2021-104Y,2026-06-08T18:35:28.203072,15.08802640,.000139,53.1668,180.4580,81.7430,278.3719,0,U,49430,999,25238,.49512E-3,.7593E-4,0
STARLINK-3153,2021-104Z,2026-06-09T04:32:51.836640,15.08843225,.0001079,53.1671,178.4972,82.8294,277.2820,0,U,49431,999,25244,.41585E-4,.374E-5,0
STARLINK-3158,2021-104AA,2026-06-08T07:34:18.961536,15.08828828,.00013451,53.1670,172.2426,85.6926,274.4219,0,U,49432,999,25245,.29377497E-4,.179E-5,0
STARLINK-3079,2021-104AB,2026-06-09T04:14:18.966624,15.08829926,.0001275,53.1656,158.3743,100.3596,259.7540,0,U,49433,999,25381,.99815E-4,.1301E-4,0
STARLINK-3134,2021-104AC,2026-06-08T18:09:05.271264,15.09229467,.0001427,53.2154,180.4391,47.0817,313.0294,0,U,49434,999,25346,.31157E-3,.4726E-4,0
STARLINK-3117,2021-104AD,2026-06-09T04:20:57.885792,15.08842799,.0001292,53.1667,158.3527,88.4204,271.6935,0,U,49435,999,25272,.31355E-3,.4706E-4,0
STARLINK-3049,2021-104AE,2026-06-09T04:19:34.833792,15.08834029,.0001298,53.1671,158.3564,83.7972,276.3168,0,U,49436,999,25272,.71227E-4,.846E-5,0
STARLINK-3130,2021-104AF,2026-06-08T05:53:35.073312,15.08832552,.0001386,53.1662,162.5586,90.7320,269.3830,0,U,49437,999,25258,.50963E-4,.523E-5,0
STARLINK-3044,2021-104AG,2026-06-08T05:39:03.127968,15.08832265,.000136,53.1660,162.5355,81.3704,278.7441,0,U,49438,999,25258,.34993E-5,-.232E-5,0
STARLINK-3105,2021-104AJ,2026-06-08T05:42:59.133024,15.08831312,.0001303,53.1665,162.5894,80.6424,279.4715,0,U,49440,999,25258,.2341E-4,.85E-6,0
STARLINK-3128,2021-104AK,2026-06-08T05:16:29.227008,15.08833404,.0001321,53.1677,162.6721,84.8475,275.2667,0,U,49441,999,25258,.77125E-5,-.165E-5,0
STARLINK-3098,2021-104AL,2026-06-09T04:00:03.000096,15.08850354,.0001349,53.1606,158.4183,75.7280,310.6620,0,U,49442,999,584,-.18505E-2,-.29627E-3,0
STARLINK-3136,2021-104AM,2026-06-09T04:14:10.065696,15.10610028,.0002706,53.2140,158.0702,46.9126,313.2093,0,U,49443,999,25273,.10914E-2,.1799E-3,0
STARLINK-3126,2021-104AN,2026-06-08T05:33:45.912960,15.08842313,.0001201,53.1659,162.6288,92.9559,267.1570,0,U,49444,999,25258,-.25893E-4,-.7E-5,0
STARLINK-3122,2021-104AP,2026-06-08T08:22:05.026656,15.08831864,.00011499,53.1673,172.4883,76.8876,283.2243,0,U,49445,999,25245,-.1313682E-5,-.309E-5,0
STARLINK-3099,2021-104AQ,2026-06-08T05:27:06.139296,15.08835116,.0001394,53.1664,162.6402,76.9746,283.1402,0,U,49446,999,25258,.10321E-3,.1355E-4,0
STARLINK-3115,2021-104AR,2026-06-08T18:24:42.565248,15.08857039,.0001186,53.1678,170.2100,97.7456,262.3670,0,U,49447,999,25252,.2115E-3,.3081E-4,0
STARLINK-3137,2021-104AT,2026-06-09T04:41:51.142848,15.49222530,.000327,53.2129,131.4691,47.0606,313.0677,0,U,49449,999,25311,.10426E-2,.57793E-3,0
STARLINK-3127,2021-104AU,2026-06-08T21:46:07.163040,15.08832085,.0001126,53.1636,169.6241,79.4204,280.6915,0,U,49450,999,25280,.75041E-4,.906E-5,0
STARLINK-3125,2021-104AV,2026-06-09T03:46:27.782400,15.08827911,.0000288,53.1692,168.4592,69.5002,290.6020,0,U,49451,999,25258,-.16523E-4,-.55E-5,0
STARLINK-3150,2021-104AW,2026-06-08T17:59:38.077728,15.08834906,.0001329,53.1680,170.3302,84.0631,276.0511,0,U,49452,999,25252,.43871E-4,.41E-5,0
STARLINK-3129,2021-104AX,2026-06-08T18:15:33.424128,15.08826743,.0001428,53.1684,170.3296,74.6328,285.4821,0,U,49453,999,25252,-.64693E-4,-.1317E-4,0
STARLINK-3160,2021-104AY,2026-06-08T18:08:50.794080,15.08836983,.0001277,53.1669,170.2605,89.4534,270.6604,0,U,49454,999,25252,.47063E-4,.461E-5,0
STARLINK-3145,2021-104AZ,2026-06-08T17:47:39.354144,15.08830924,.0001292,53.1680,170.3292,87.0454,273.0685,0,U,49455,999,25252,.34036E-4,.254E-5,0
STARLINK-3124,2021-104BA,2026-06-08T18:04:56.263008,15.08845764,.0001124,53.1676,170.3221,74.1260,285.9855,0,U,49456,999,25252,.11126E-3,.1484E-4,0
STARLINK-3132,2021-104BB,2026-06-08T17:43:44.087808,15.08831475,.0001147,53.1665,170.3503,87.2644,272.8479,0,U,49457,999,25252,.34617E-4,.263E-5,0
STARLINK-3156,2021-104BC,2026-06-08T08:20:38.283648,15.08832680,.00010633,53.1673,172.0985,84.9813,275.1300,0,U,49458,999,25246,-.29814656E-4,-.762E-5,0
STARLINK-3141,2021-104BD,2026-06-08T17:37:03.386208,15.08842133,.0001042,53.1644,170.3545,77.8676,282.2432,0,U,49459,999,25252,.37964E-4,.316E-5,0
STARLINK-3140,2021-104BE,2026-06-08T17:31:45.256224,15.08831723,.0001254,53.1672,170.3773,80.0089,280.1044,0,U,49460,999,25251,.41412E-4,.371E-5,0
GLOBAL-14,2021-106A,2026-06-08T18:37:27.161184,15.50184743,.0017086,42.0063,341.0542,321.6139,38.3489,0,U,49469,999,25682,.49426E-3,.28567E-3,0
GAOFEN-11 03,2021-107A,2026-06-09T04:07:15.801888,15.23823528,.0009877,97.2089,204.6228,90.5002,269.7368,0,U,49492,999,25341,.19027E-3,.4522E-4,0
GAOFEN-3 02,2021-109A,2026-06-09T03:21:20.881728,14.42216223,.0003408,98.4093,168.3510,35.9491,324.1927,0,U,49495,999,23915,.39196E-4,.86E-6,0
COSMOS 2552,2021-113A,2026-06-06T23:19:59.126304,2.00642076,.6437366,62.8389,208.3437,272.5025,20.6959,0,U,49503,999,3319,0,-.172E-5,0
ZHONGXING-1D,2021-114A,2026-06-09T05:24:06.302016,1.00273581,.000025,0.0372,242.5391,320.9201,265.3656,0,U,49505,999,1674,0,-.319E-5,0
STARLINK-3219,2021-115A,2026-06-09T03:08:04.937280,15.08832983,.0001382,53.1646,98.8013,90.7488,269.3662,0,U,49724,999,24933,.11169E-3,.149E-4,0
STARLINK-3218,2021-115B,2026-06-09T02:04:28.105824,15.08835897,.0001301,53.1662,98.8832,92.6749,267.4391,0,U,49725,999,24933,.71655E-4,.852E-5,0
STARLINK-3242,2021-115D,2026-06-09T04:10:18.600096,15.08810319,.0001228,53.1645,108.3853,91.7209,268.3924,0,U,49727,999,24920,.33459E-3,.5037E-4,0
STARLINK-3240,2021-115E,2026-06-09T04:15:36.088128,15.08829211,.0000893,53.1634,108.3692,73.7953,286.3137,0,U,49728,999,24920,-.79243E-4,-.1548E-4,0
STARLINK-3251,2021-115F,2026-06-09T02:29:36.292128,15.08833914,.0001415,53.1650,108.5832,85.7110,274.4043,0,U,49729,999,24919,.77965E-4,.953E-5,0
STARLINK-3249,2021-115G,2026-06-09T03:22:39.605952,15.08831606,.0001755,53.1650,108.7306,71.2610,288.8572,0,U,49730,999,24919,.13508E-3,.1862E-4,0
